ICEYE-X53               
1 64584U 25135BJ  26191.82499821  .00000127  00000+0  14674-4 0  9990
2 64584  97.7365 308.5039 0001706 165.2417 194.8857 15.00876580 57626
ICEYE-X65               
1 66300U 25248H   26190.93952309  .00001945  00000+0  14071-3 0  9998
2 66300  45.4054  14.5380 0004928 169.9214 190.1767 15.07908239 38955
ICEYE-X66               
1 66301U 25248J   26191.47113304  .00001963  00000+0  13725-3 0  9998
2 66301  45.4022  10.8728 0004605 169.2953 190.8028 15.09157777 39022
ICEYE-X67               
1 66302U 25248K   26191.49576429  .00002439  00000+0  16683-3 0  9997
2 66302  45.4059  10.3192 0006224 169.5967 190.5044 15.09139997 39041
ICEYE-X58               
1 66751U 25276CP  26191.13553258  .00001539  00000+0  80570-4 0  9999
2 66751  97.4195 264.1180 0001919 241.0948 119.0093 15.17290879 33897
ICEYE-X59               
1 66752U 25276CQ  26191.21179544  .00003152  00000+0  25313-3 0  9997
2 66752  97.4377 261.5258 0000570 143.3764 216.7500 15.00724834 33724
ICEYE-X60               
1 66753U 25276CR  26191.33336806 -.00050185  00000+0 -29888-2 0  9997
2 66753  97.4185 263.3145 0001250 331.6983 212.3455 15.11432187  5817
ICEYE-X61               
1 66754U 25276CS  26191.61929169  .00002127  00000+0  10610-3 0  9994
2 66754  97.4195 264.6725 0001733 237.2900 122.8167 15.18593094 33978
ICEYE-X62               
1 66755U 25276CT  26189.73169495  .00001479  00000+0  94519-4 0  9993
2 66755  97.4194 261.2654 0000783 320.3388  39.7785 15.10117598 33582
ICEYE-X63               
1 67372U 26004K   26191.67990054  .00000588  00000+0  69378-4 0  9993
2 67372  97.8010 189.9527 0005625  62.8170 297.3620 14.88343806 26793
ICEYE-X64               
1 67373U 26004L   26191.59301919  .00000785  00000+0  91530-4 0  9995
2 67373  97.8024 189.7883 0007473  66.2935 293.9065 14.87980468 26775
ICEYE-X71               
1 68494U 26067CG  26191.33771511  .00001301  00000+0  13462-3 0  9992
2 68494  97.7615 149.2186 0001435   2.8077 357.3150 14.91779046 15172
ICEYE-X73               
1 68496U 26067CJ  26191.30017348  .00002114  00000+0  21229-3 0  9995
2 68496  97.7614 149.2635 0001149 153.7105 206.4173 14.92336562 15174
ICEYE-X75               
1 68497U 26067CK  26191.30409396  .00000820  00000+0  86022-4 0  9999
2 68497  97.7604 149.2369 0001002 151.7825 208.3448 14.92168072 15178
ICEYE-X74               
1 68500U 26067CN  26191.13562397  .00001239  00000+0  12844-3 0  9991
2 68500  97.7622 149.0293 0001276   0.8315 359.2905 14.91778831 15148
ICEYE-X76               
1 68502U 26067CQ  26190.59476962  .00000518  00000+0  56927-4 0  9994
2 68502  97.7637 148.5145 0001035 351.4143   8.7058 14.91743809 15066
